[{"OBJECT_NAME":"STARLINK-6239","OBJECT_ID":"2023-061BB","EPOCH":"2026-03-08T13:30:47.288448","MEAN_MOTION":15.02537229,"ECCENTRICITY":0.00011696,"INCLINATION":43.0027,"RA_OF_ASC_NODE":177.7115,"ARG_OF_PERICENTER":275.8336,"MEAN_ANOMALY":84.2373,"EPHEMERIS_TYPE":0,"CLASSIFICATION_TYPE":"U","NORAD_CAT_ID":56423,"ELEMENT_SET_NO":999,"REV_AT_EPOCH":15688,"BSTAR":6.1795971e-5,"MEAN_MOTION_DOT":6.31e-6,"MEAN_MOTION_DDOT":0},{"OBJECT_NAME":"QAEM 100 R\/B","OBJECT_ID":"2024-165A","EPOCH":"2026-03-09T23:28:11.930304","MEAN_MOTION":15.14187295,"ECCENTRICITY":0.0059581,"INCLINATION":64.0756,"RA_OF_ASC_NODE":359.5576,"ARG_OF_PERICENTER":312.0209,"MEAN_ANOMALY":47.5844,"EPHEMERIS_TYPE":0,"CLASSIFICATION_TYPE":"U","NORAD_CAT_ID":61071,"ELEMENT_SET_NO":999,"REV_AT_EPOCH":8183,"BSTAR":0.0003372463,"MEAN_MOTION_DOT":6.252e-5,"MEAN_MOTION_DDOT":0}]
